[{"OBJECT_NAME":"STARLINK-34294","OBJECT_ID":"2025-137F","EPOCH":"2025-10-08T12:59:32.600256","MEAN_MOTION":15.39607481,"ECCENTRICITY":0.0001293,"INCLINATION":53.1586,"RA_OF_ASC_NODE":328.1097,"ARG_OF_PERICENTER":77.9062,"MEAN_ANOMALY":282.2088,"EPHEMERIS_TYPE":0,"CLASSIFICATION_TYPE":"U","NORAD_CAT_ID":64599,"ELEMENT_SET_NO":999,"REV_AT_EPOCH":1735,"BSTAR":0.001691,"MEAN_MOTION_DOT":0.00067814,"MEAN_MOTION_DDOT":0},{"OBJECT_NAME":"STARLINK-34504","OBJECT_ID":"2025-137G","EPOCH":"2025-10-09T06:34:33.230208","MEAN_MOTION":15.39602211,"ECCENTRICITY":0.00013678,"INCLINATION":53.1592,"RA_OF_ASC_NODE":324.8608,"ARG_OF_PERICENTER":91.4391,"MEAN_ANOMALY":268.6771,"EPHEMERIS_TYPE":0,"CLASSIFICATION_TYPE":"U","NORAD_CAT_ID":64600,"ELEMENT_SET_NO":999,"REV_AT_EPOCH":1746,"BSTAR":0.0010196899,"MEAN_MOTION_DOT":0.00040581,"MEAN_MOTION_DDOT":0},{"OBJECT_NAME":"STARLINK-34508","OBJECT_ID":"2025-137H","EPOCH":"2025-10-09T03:07:32.186496","MEAN_MOTION":15.39643618,"ECCENTRICITY":0.00016419,"INCLINATION":53.1588,"RA_OF_ASC_NODE":325.3848,"ARG_OF_PERICENTER":118.1548,"MEAN_ANOMALY":241.9623,"EPHEMERIS_TYPE":0,"CLASSIFICATION_TYPE":"U","NORAD_CAT_ID":64601,"ELEMENT_SET_NO":999,"REV_AT_EPOCH":1744,"BSTAR":0.0015515608,"MEAN_MOTION_DOT":0.00062219,"MEAN_MOTION_DDOT":0},{"OBJECT_NAME":"STARLINK-34435","OBJECT_ID":"2025-137J","EPOCH":"2025-10-08T20:26:52.663488","MEAN_MOTION":15.39626778,"ECCENTRICITY":0.00016934,"INCLINATION":53.1584,"RA_OF_ASC_NODE":326.4927,"ARG_OF_PERICENTER":84.3428,"MEAN_ANOMALY":275.777,"EPHEMERIS_TYPE":0,"CLASSIFICATION_TYPE":"U","NORAD_CAT_ID":64602,"ELEMENT_SET_NO":999,"REV_AT_EPOCH":1740,"BSTAR":0.0020803997,"MEAN_MOTION_DOT":0.00083753,"MEAN_MOTION_DDOT":0},{"OBJECT_NAME":"STARLINK-34475","OBJECT_ID":"2025-137K","EPOCH":"2025-10-08T20:20:11.530752","MEAN_MOTION":15.39617794,"ECCENTRICITY":0.00020051,"INCLINATION":53.1588,"RA_OF_ASC_NODE":326.4635,"ARG_OF_PERICENTER":84.1062,"MEAN_ANOMALY":276.0171,"EPHEMERIS_TYPE":0,"CLASSIFICATION_TYPE":"U","NORAD_CAT_ID":64603,"ELEMENT_SET_NO":999,"REV_AT_EPOCH":1740,"BSTAR":0.0015037012,"MEAN_MOTION_DOT":0.00060221,"MEAN_MOTION_DDOT":0},{"OBJECT_NAME":"STARLINK-34488","OBJECT_ID":"2025-137L","EPOCH":"2025-10-09T06:27:52.035264","MEAN_MOTION":15.39652409,"ECCENTRICITY":0.00019351,"INCLINATION":53.1588,"RA_OF_ASC_NODE":324.8295,"ARG_OF_PERICENTER":84.9286,"MEAN_ANOMALY":275.194,"EPHEMERIS_TYPE":0,"CLASSIFICATION_TYPE":"U","NORAD_CAT_ID":64604,"ELEMENT_SET_NO":999,"REV_AT_EPOCH":1746,"BSTAR":0.0014178797,"MEAN_MOTION_DOT":0.000568,"MEAN_MOTION_DDOT":0},{"OBJECT_NAME":"STARLINK-34516","OBJECT_ID":"2025-137M","EPOCH":"2025-10-08T20:40:14.660256","MEAN_MOTION":15.39621723,"ECCENTRICITY":5.58e-5,"INCLINATION":53.161,"RA_OF_ASC_NODE":326.5505,"ARG_OF_PERICENTER":76.7494,"MEAN_ANOMALY":283.3573,"EPHEMERIS_TYPE":0,"CLASSIFICATION_TYPE":"U","NORAD_CAT_ID":64605,"ELEMENT_SET_NO":999,"REV_AT_EPOCH":1750,"BSTAR":0.00040242,"MEAN_MOTION_DOT":0.00015731,"MEAN_MOTION_DDOT":0},{"OBJECT_NAME":"STARLINK-34073","OBJECT_ID":"2025-137N","EPOCH":"2025-10-09T05:27:40.701888","MEAN_MOTION":15.39655576,"ECCENTRICITY":9.958e-5,"INCLINATION":53.1584,"RA_OF_ASC_NODE":324.5675,"ARG_OF_PERICENTER":131.2741,"MEAN_ANOMALY":228.835,"EPHEMERIS_TYPE":0,"CLASSIFICATION_TYPE":"U","NORAD_CAT_ID":64606,"ELEMENT_SET_NO":999,"REV_AT_EPOCH":1735,"BSTAR":0.0018241452,"MEAN_MOTION_DOT":0.00073356,"MEAN_MOTION_DDOT":0},{"OBJECT_NAME":"STARLINK-34532","OBJECT_ID":"2025-137P","EPOCH":"2025-10-08T14:00:02.395584","MEAN_MOTION":15.30198151,"ECCENTRICITY":0.0001229,"INCLINATION":53.1575,"RA_OF_ASC_NODE":331.9184,"ARG_OF_PERICENTER":65.1823,"MEAN_ANOMALY":294.9305,"EPHEMERIS_TYPE":0,"CLASSIFICATION_TYPE":"U","NORAD_CAT_ID":64607,"ELEMENT_SET_NO":999,"REV_AT_EPOCH":1730,"BSTAR":0.00039015,"MEAN_MOTION_DOT":0.00011213,"MEAN_MOTION_DDOT":0},{"OBJECT_NAME":"STARLINK-34519","OBJECT_ID":"2025-137Q","EPOCH":"2025-10-09T06:35:02.249376","MEAN_MOTION":15.39609036,"ECCENTRICITY":0.00013264,"INCLINATION":53.159,"RA_OF_ASC_NODE":324.8628,"ARG_OF_PERICENTER":79.1412,"MEAN_ANOMALY":280.9742,"EPHEMERIS_TYPE":0,"CLASSIFICATION_TYPE":"U","NORAD_CAT_ID":64608,"ELEMENT_SET_NO":999,"REV_AT_EPOCH":1746,"BSTAR":0.00095924168,"MEAN_MOTION_DOT":0.00038148,"MEAN_MOTION_DDOT":0},{"OBJECT_NAME":"STARLINK-34513","OBJECT_ID":"2025-137R","EPOCH":"2025-10-09T06:28:21.142560","MEAN_MOTION":15.39607536,"ECCENTRICITY":0.00014878,"INCLINATION":53.1592,"RA_OF_ASC_NODE":324.8304,"ARG_OF_PERICENTER":76.8116,"MEAN_ANOMALY":283.3055,"EPHEMERIS_TYPE":0,"CLASSIFICATION_TYPE":"U","NORAD_CAT_ID":64609,"ELEMENT_SET_NO":999,"REV_AT_EPOCH":1756,"BSTAR":0.0015580601,"MEAN_MOTION_DOT":0.00062408,"MEAN_MOTION_DDOT":0},{"OBJECT_NAME":"STARLINK-34569","OBJECT_ID":"2025-137S","EPOCH":"2025-10-09T06:21:39.899232","MEAN_MOTION":15.39669668,"ECCENTRICITY":0.00019901,"INCLINATION":53.1587,"RA_OF_ASC_NODE":324.8018,"ARG_OF_PERICENTER":69.6945,"MEAN_ANOMALY":290.4273,"EPHEMERIS_TYPE":0,"CLASSIFICATION_TYPE":"U","NORAD_CAT_ID":64610,"ELEMENT_SET_NO":999,"REV_AT_EPOCH":1746,"BSTAR":0.0015494271,"MEAN_MOTION_DOT":0.00062186,"MEAN_MOTION_DDOT":0},{"OBJECT_NAME":"STARLINK-34494","OBJECT_ID":"2025-137T","EPOCH":"2025-10-09T06:14:58.614432","MEAN_MOTION":15.396161,"ECCENTRICITY":0.00012279,"INCLINATION":53.1592,"RA_OF_ASC_NODE":324.7728,"ARG_OF_PERICENTER":72.079,"MEAN_ANOMALY":288.0348,"EPHEMERIS_TYPE":0,"CLASSIFICATION_TYPE":"U","NORAD_CAT_ID":64611,"ELEMENT_SET_NO":999,"REV_AT_EPOCH":1746,"BSTAR":0.0014284821,"MEAN_MOTION_DOT":0.00057161,"MEAN_MOTION_DDOT":0},{"OBJECT_NAME":"STARLINK-34521","OBJECT_ID":"2025-137U","EPOCH":"2025-10-08T20:40:44.437152","MEAN_MOTION":15.39622221,"ECCENTRICITY":0.0002122,"INCLINATION":53.1593,"RA_OF_ASC_NODE":326.5493,"ARG_OF_PERICENTER":82.8335,"MEAN_ANOMALY":277.2911,"EPHEMERIS_TYPE":0,"CLASSIFICATION_TYPE":"U","NORAD_CAT_ID":64612,"ELEMENT_SET_NO":999,"REV_AT_EPOCH":1740,"BSTAR":0.0018635,"MEAN_MOTION_DOT":0.00074881,"MEAN_MOTION_DDOT":0},{"OBJECT_NAME":"STARLINK-34500","OBJECT_ID":"2025-137V","EPOCH":"2025-10-08T20:27:21.735360","MEAN_MOTION":15.39618441,"ECCENTRICITY":0.00017028,"INCLINATION":53.1591,"RA_OF_ASC_NODE":326.492,"ARG_OF_PERICENTER":76.3713,"MEAN_ANOMALY":283.7482,"EPHEMERIS_TYPE":0,"CLASSIFICATION_TYPE":"U","NORAD_CAT_ID":64613,"ELEMENT_SET_NO":999,"REV_AT_EPOCH":1750,"BSTAR":0.0019092416,"MEAN_MOTION_DOT":0.00076737,"MEAN_MOTION_DDOT":0},{"OBJECT_NAME":"STARLINK-34440","OBJECT_ID":"2025-137W","EPOCH":"2025-10-08T20:20:40.700256","MEAN_MOTION":15.39618562,"ECCENTRICITY":0.0001885,"INCLINATION":53.1587,"RA_OF_ASC_NODE":326.463,"ARG_OF_PERICENTER":73.6663,"MEAN_ANOMALY":286.4549,"EPHEMERIS_TYPE":0,"CLASSIFICATION_TYPE":"U","NORAD_CAT_ID":64614,"ELEMENT_SET_NO":999,"REV_AT_EPOCH":1740,"BSTAR":0.0018762111,"MEAN_MOTION_DOT":0.0007539,"MEAN_MOTION_DDOT":0}]
