STARLINK-34294          
1 64599U 25137F   25281.54134954  .00067814  00000+0  16910-2 0  9998
2 64599  53.1586 328.1097 0001293  77.9062 282.2088 15.39607481 17359
STARLINK-34504          
1 64600U 25137G   25282.27399572  .00040581  00000+0  10197-2 0  9994
2 64600  53.1592 324.8608 0001367  91.4391 268.6771 15.39602211 17463
STARLINK-34508          
1 64601U 25137H   25282.13023364  .00062219  00000+0  15516-2 0  9995
2 64601  53.1588 325.3848 0001641 118.1548 241.9623 15.39643618 17441
STARLINK-34435          
1 64602U 25137J   25281.85199842  .00083753  00000+0  20804-2 0  9991
2 64602  53.1584 326.4927 0001693  84.3428 275.7770 15.39626778 17408
STARLINK-34475          
1 64603U 25137K   25281.84735568  .00060221  00000+0  15037-2 0  9999
2 64603  53.1588 326.4635 0002005  84.1062 276.0171 15.39617794 17406
STARLINK-34488          
1 64604U 25137L   25282.26935226  .00056800  00000+0  14179-2 0  9994
2 64604  53.1588 324.8295 0001935  84.9286 275.1940 15.39652409 17460
STARLINK-34516          
1 64605U 25137M   25281.86128079  .00015731  00000+0  40242-3 0  9999
2 64605  53.1610 326.5505 0000558  76.7494 283.3573 15.39621723 17503
STARLINK-34073          
1 64606U 25137N   25282.22755442  .00073356  00000+0  18241-2 0  9991
2 64606  53.1584 324.5675 0000995 131.2741 228.8350 15.39655576 17350
STARLINK-34532          
1 64607U 25137P   25281.58336106  .00011213  00000+0  39015-3 0  9999
2 64607  53.1575 331.9184 0001229  65.1823 294.9305 15.30198151 17306
STARLINK-34519          
1 64608U 25137Q   25282.27433159  .00038148  00000+0  95924-3 0  9990
2 64608  53.1590 324.8628 0001326  79.1412 280.9742 15.39609036 17460
STARLINK-34513          
1 64609U 25137R   25282.26968915  .00062408  00000+0  15581-2 0  9999
2 64609  53.1592 324.8304 0001487  76.8116 283.3055 15.39607536 17565
STARLINK-34569          
1 64610U 25137S   25282.26504513  .00062186  00000+0  15494-2 0  9997
2 64610  53.1587 324.8018 0001990  69.6945 290.4273 15.39669668 17466
STARLINK-34494          
1 64611U 25137T   25282.26040063  .00057161  00000+0  14285-2 0  9997
2 64611  53.1592 324.7728 0001227  72.0790 288.0348 15.39616100 17468
STARLINK-34521          
1 64612U 25137U   25281.86162543  .00074881  00000+0  18635-2 0  9992
2 64612  53.1593 326.5493 0002122  82.8335 277.2911 15.39622221 17409
STARLINK-34500          
1 64613U 25137V   25281.85233490  .00076737  00000+0  19092-2 0  9992
2 64613  53.1591 326.4920 0001702  76.3713 283.7482 15.39618441 17508
STARLINK-34440          
1 64614U 25137W   25281.84769329  .00075390  00000+0  18762-2 0  9994
2 64614  53.1587 326.4630 0001885  73.6663 286.4549 15.39618562 17405
